STARLINK-2060
1 27669C 21012BB  21325.12048524  .00008336  00000-0  55840-3 0  3255
2 27669  53.0508 182.6824 0002672  61.3431 153.8341 15.06396988    12
